H1 CPF  1  DLR 2021 07 29 10  7102 technosat            
H2  1704205 6203    42829 2021 07 29 00 00 00 2021 08 05 00 00 00    60 1 1  0 0 0
H9
10 0 59427  36000.000000  0       4895536.389      -2357272.100       4351119.105
10 0 59427  36060.000000  0       4589973.168      -2318975.696       4691185.018
10 0 59427  36120.000000  0       4265399.098      -2268120.213       5011278.587
10 0 59427  36180.000000  0       3923302.670      -2204764.381       5310045.041
10 0 59427  36240.000000  0       3565244.867      -2129033.118       5586221.897
10 0 59427  36300.000000  0       3192851.701      -2041117.448       5838644.104
10 0 59427  36360.000000  0       2807806.580      -1941274.070       6066248.743
10 0 59427  36420.000000  0       2411842.472      -1829824.651       6268079.322
10 0 59427  36480.000000  0       2006733.863      -1707154.769       6443289.555
10 0 59427  36540.000000  0       1594288.662      -1573712.525       6591146.668
10 0 59427  36600.000000  0       1176339.961      -1430006.835       6711034.259
10 0 59427  36660.000000  0        754737.774      -1276605.403       6802454.572
10 0 59427  36720.000000  0        331340.821      -1114132.393       6865030.328
10 0 59427  36780.000000  0        -91991.698       -943265.807       6898506.054
10 0 59427  36840.000000  0       -513408.224       -764734.624       6902748.900
10 0 59427  36900.000000  0       -931072.881       -579315.671       6877749.061
10 0 59427  36960.000000  0      -1343173.446       -387830.202       6823619.674
10 0 59427  37020.000000  0      -1747929.145       -191140.246       6740596.216
10 0 59427  37080.000000  0      -2143598.262          9855.262       6629035.478
10 0 59427  37140.000000  0      -2528485.604        214224.582       6489414.062
10 0 59427  37200.000000  0      -2900949.732        421007.464       6322326.386
10 0 59427  37260.000000  0      -3259409.941        629219.601       6128482.256
10 0 59427  37320.000000  0      -3602353.021        837857.269       5908703.980
10 0 59427  37380.000000  0      -3928339.711       1045902.097       5663922.987
10 0 59427  37440.000000  0      -4236010.825       1252325.967       5395176.011
10 0 59427  37500.000000  0      -4524093.022       1456096.041       5103600.816
10 0 59427  37560.000000  0      -4791404.200       1656179.882       4790431.500
10 0 59427  37620.000000  0      -5036858.494       1851550.617       4456993.363
10 0 59427  37680.000000  0      -5259470.814       2041192.123       4104697.370
10 0 59427  37740.000000  0      -5458360.915       2224104.217       3735034.244
10 0 59427  37800.000000  0      -5632757.000       2399307.825       3349568.241
10 0 59427  37860.000000  0      -5781998.874       2565850.114       2949930.575
10 0 59427  37920.000000  0      -5905540.562       2722809.531       2537812.516
10 0 59427  37980.000000  0      -6002952.432       2869300.754       2114958.235
10 0 59427  38040.000000  0      -6073922.799       3004479.526       1683157.333
10 0 59427  38100.000000  0      -6118258.922       3127547.312       1244237.111
10 0 59427  38160.000000  0      -6135887.368       3237755.724        800054.681
10 0 59427  38220.000000  0      -6126853.849       3334410.736        352489.028
10 0 59427  38280.000000  0      -6091322.543       3416876.668        -96567.103
10 0 59427  38340.000000  0      -6029574.772       3484579.863       -545215.382
10 0 59427  38400.000000  0      -5942007.229       3537012.086       -991559.990
10 0 59427  38460.000000  0      -5829129.677       3573733.658      -1433715.859
10 0 59427  38520.000000  0      -5691561.982       3594376.233      -1869816.809
10 0 59427  38580.000000  0      -5530030.616       3598645.173      -2298023.562
10 0 59427  38640.000000  0      -5345364.752       3586321.564      -2716531.498
10 0 59427  38700.000000  0      -5138491.927       3557263.922      -3123578.328
10 0 59427  38760.000000  0      -4910433.181       3511409.475      -3517451.534
10 0 59427  38820.000000  0      -4662297.811       3448775.039      -3896495.454
10 0 59427  38880.000000  0      -4395277.856       3369457.543      -4259118.101
10 0 59427  38940.000000  0      -4110642.235       3273634.181      -4603797.719
10 0 59427  39000.000000  0      -3809730.530       3161562.155      -4929088.989
10 0 59427  39060.000000  0      -3493946.559       3033578.040      -5233628.764
10 0 59427  39120.000000  0      -3164751.834       2890096.814      -5516141.496
10 0 59427  39180.000000  0      -2823658.794       2731610.549      -5775444.373
10 0 59427  39240.000000  0      -2472223.807       2558686.727      -6010452.043
10 0 59427  39300.000000  0      -2112040.026       2371966.163      -6220180.892
10 0 59427  39360.000000  0      -1744730.180       2172160.581      -6403752.839
10 0 59427  39420.000000  0      -1371939.368       1960049.903      -6560398.669
10 0 59427  39480.000000  0       -995327.874       1736479.288      -6689461.052
10 0 59427  39540.000000  0       -616563.868       1502355.777      -6790397.156
10 0 59427  39600.000000  0       -237316.175       1258644.658      -6862780.667
10 0 59427  39660.000000  0        140752.793       1006365.639      -6906303.485
10 0 59427  39720.000000  0        515994.135        746588.731      -6920777.128
10 0 59427  39780.000000  0        886779.593        480429.818      -6906133.634
10 0 59427  39840.000000  0       1251508.532        209045.963      -6862425.879
10 0 59427  39900.000000  0       1608614.702        -66369.490      -6789827.453
10 0 59427  39960.000000  0       1956572.811       -344591.998      -6688632.118
10 0 59427  40020.000000  0       2293904.947       -624371.094      -6559252.925
10 0 59427  40080.000000  0       2619186.905       -904435.906      -6402220.829
10 0 59427  40140.000000  0       2931054.207      -1183500.802      -6218182.724
10 0 59427  40200.000000  0       3228207.807      -1460271.112      -6007899.128
10 0 59427  40260.000000  0       3509419.619      -1733449.029      -5772241.540
10 0 59427  40320.000000  0       3773537.853      -2001739.708      -5512189.231
10 0 59427  40380.000000  0       4019491.953      -2263857.417      -5228825.477
10 0 59427  40440.000000  0       4246297.160      -2518531.730      -4923333.392
10 0 59427  40500.000000  0       4453058.703      -2764513.732      -4596991.276
10 0 59427  40560.000000  0       4638975.583      -3000582.190      -4251167.574
10 0 59427  40620.000000  0       4803344.001      -3225549.677      -3887315.409
10 0 59427  40680.000000  0       4945560.352      -3438268.647      -3506966.691
10 0 59427  40740.000000  0       5065123.789      -3637637.399      -3111725.825
10 0 59427  40800.000000  0       5161638.314      -3822605.929      -2703262.979
10 0 59427  40860.000000  0       5234814.290      -3992181.529      -2283306.996
10 0 59427  40920.000000  0       5284469.489      -4145434.174      -1853638.065
10 0 59427  40980.000000  0       5310529.657      -4281501.720      -1416080.054
10 0 59427  41040.000000  0       5313028.493      -4399594.767       -972492.536
10 0 59427  41100.000000  0       5292107.082      -4499001.196       -524762.680
10 0 59427  41160.000000  0       5248012.821      -4579090.421        -74796.936
10 0 59427  41220.000000  0       5181097.754      -4639317.179        375487.459
10 0 59427  41280.000000  0       5091816.392      -4679224.869        824171.001
10 0 59427  41340.000000  0       4980723.014      -4698448.480       1269340.476
10 0 59427  41400.000000  0       4848468.444      -4696717.060       1709097.493
10 0 59427  41460.000000  0       4695796.369      -4673855.689       2141566.908
10 0 59427  41520.000000  0       4523539.232      -4629786.972       2564905.133
10 0 59427  41580.000000  0       4332613.697      -4564532.041       2977308.290
10 0 59427  41640.000000  0       4124015.703      -4478211.085       3377020.158
10 0 59427  41700.000000  0       3898815.134      -4371043.379       3762339.881
10 0 59427  41760.000000  0       3658150.153      -4243346.790       4131629.386
10 0 59427  41820.000000  0       3403221.252      -4095536.765       4483320.450
10 0 59427  41880.000000  0       3135285.064      -3928124.816       4815921.407
10 0 59427  41940.000000  0       2855647.989      -3741716.584       5128023.416
10 0 59427  42000.000000  0       2565659.668      -3537009.498       5418306.406
10 0 59427  42060.000000  0       2266706.263      -3314789.909       5685544.613
10 0 59427  42120.000000  0       1960203.615      -3075929.783       5928611.587
10 0 59427  42180.000000  0       1647590.380      -2821383.045       6146484.682
10 0 59427  42240.000000  0       1330321.195      -2552181.574       6338249.129
10 0 59427  42300.000000  0       1009859.799      -2269430.830       6503101.666
10 0 59427  42360.000000  0        687672.184      -1974305.133       6640353.632
10 0 59427  42420.000000  0        365219.865      -1668042.662       6749433.561
10 0 59427  42480.000000  0         43953.283      -1351940.150       6829889.366
10 0 59427  42540.000000  0       -274694.734      -1027347.243       6881390.003
10 0 59427  42600.000000  0       -589315.301       -695660.687       6903726.582
10 0 59427  42660.000000  0       -898529.664       -358318.299       6896813.099
10 0 59427  42720.000000  0      -1200995.219        -16792.703       6860686.624
10 0 59427  42780.000000  0      -1495411.293        327415.106       6795507.016
10 0 59427  42840.000000  0      -1780524.663        672782.345       6701556.152
10 0 59427  42900.000000  0      -2055134.862       1017771.145       6579236.701
10 0 59427  42960.000000  0      -2318099.211       1360835.365       6429070.405
10 0 59427  43020.000000  0      -2568337.525       1700427.481       6251695.899
10 0 59427  43080.000000  0      -2804836.538       2035005.529       6047866.111
10 0 59427  43140.000000  0      -3026654.020       2363040.105       5818445.211
99
